#aV2013  3 17  0  0  0.00000000     288 DD+AD WGS84 FIT  NGA
## 1732      0.00000000   300.00000000 56368 0.0000000000000
+   31     1  2  3  4  5  6  7  8  9 10 11 12 13 14 15 16 17
+         18 19 20 21 22 23 24 25 26 28 29 30 31 32  0  0  0
+          0  0  0  0  0  0  0  0  0  0  0  0  0  0  0  0  0
+          0  0  0  0  0  0  0  0  0  0  0  0  0  0  0  0  0
+          0  0  0  0  0  0  0  0  0  0  0  0  0  0  0  0  0
++         2  2  2  2  2  2  2  2  2  2  2  2  2  2  2  2  2
++         2  2  2  2  2  2  2  2  2  2  2  2  2  2  2  0  0
++         0  0  0  0  0  0  0  0  0  0  0  0  0  0  0  0  0
++         0  0  0  0  0  0  0  0  0  0  0  0  0  0  0  0  0
++         0  0  0  0  0  0  0  0  0  0  0  0  0  0  0  0  0
%c cc cc ccc ccc cccc cccc cccc cccc ccccc ccccc ccccc ccccc
%c cc cc ccc ccc cccc cccc cccc cccc ccccc ccccc ccccc ccccc
%f  0.0000000  0.000000000  0.00000000000  0.000000000000000
%f  0.0000000  0.000000000  0.00000000000  0.000000000000000
%i    0    0    0    0      0      0      0      0         0
%i    0    0    0    0      0      0      0      0         0
/*      NGA, ST. LOUIS,MO.                                  
/*   EPHEMERIS COMPUTED FROM  1 DAYS OF DATA
/*   EPOCHA SMOOTHER  
/* CCCCCCCCCCCCCCCCCCCCCCCCCCCCCCCCCCCCCCCCCCCCCCCCCCCCCCCCC
*  2013  3 17  3 45  0.00000000                                                 
P  1  14002.208222 -21252.087442   7444.972289      8.077229                    
V  1   -960.245760   9834.350224  29877.002014      0.030793                    
P  2 -16181.296225   -145.408983 -20792.128396    422.607414                    
V  2   8480.685072 -25669.576871  -6873.829157      0.016625                    
P  3  20874.189021   3881.843601  15587.857369    181.643071                    
V  3  13316.026206  16053.772705 -20923.245718      0.051623                    
P  4 -10933.865727 -13249.614886 -20471.958785    163.481955                    
V  4  10421.798421 -23330.596870   9949.772497      0.109310                    
P  5 -26430.838786   2160.693871  -2526.303873   -388.123560                    
V  5   2672.826865  -3483.715975 -31189.811621     -0.015315                    
P  6  21391.122835  10036.276793  12567.767161    311.790149                    
V  6   8639.835831  13381.666642 -25227.961465     -0.151636                    
P  7   4985.968438 -24879.576373   7368.282453    192.041121                    
V  7   5849.857132  -7699.163664 -30403.032997      0.043043                    
P  8  -1603.915014 -20257.811921  16868.904493      5.142627                    
V  8  11191.792520 -18272.620983 -21576.951476      0.001734                    
P  9 -15392.473176    933.378773  21078.526967    227.447458                    
V  9   9647.051920 -26292.127713   7949.254193      0.026295                    
P 10 -18415.585244  -9925.574823 -16888.032175    -73.532871                    
V 10  20381.237547  -4451.237058 -19540.016203     -0.014748                    
P 11  13336.891091 -17237.186689  14567.533305   -363.182963                    
V 11   2160.608287  19852.755934  21177.739467     -0.036719                    
P 12 -19830.267706  11327.767073 -13403.549030    123.268452                    
V 12 -17115.735447    196.828855  25736.725536      0.020568                    
P 13    266.444179 -20504.669744 -16960.037631    137.047332                    
V 13  12687.173814  17111.591615 -20775.094420     -0.029494                    
P 14  14683.112611  22222.448778    664.498005    220.954269                    
V 14  -2199.733771    773.747530  31952.315567      0.001324                    
P 15 -14165.742301   7217.118202  21272.189218   -111.803041                    
V 15 -17176.294999 -20992.981759  -4056.744325     -0.013584                    
P 16  26527.666778   -370.019685  -3392.907256   -252.614084                    
V 16  -4047.761636   2183.769234 -31657.367674     -0.000372                    
P 17 -15873.226398 -21452.958684   -193.463689     39.555006                    
V 17   1722.233529  -1881.458469  31683.232407     -0.040169                    
P 18   2763.103008  15878.907579  21507.280795    244.269145                    
V 18 -26265.124748   3742.999170    267.235566      0.017397                    
P 19  15956.897267  -2460.785569  21078.838109   -357.019185                    
V 19  14294.684280  22760.466285  -7723.600779     -0.031986                    
P 20  17147.661316 -14432.703130 -14375.448265     88.508916                    
V 20  18273.254273   -802.776307  22957.880300      0.017206                    
P 21   -566.082241  24039.089043  11208.736844   -286.500611                    
V 21  -8247.807204  11443.562575 -26797.390914     -0.022030                    
P 22  14940.840754  12011.098123  18624.226063    161.323370                    
V 22 -22853.109647   5103.827786  15054.642001      0.012554                    
P 23   7450.433625 -14444.158788 -20875.235889    104.259797                    
V 23  17125.823574  20562.092765  -8472.705968     -0.036702                    
P 24 -15309.042039  18862.750747  10686.825764     -2.815052                    
V 24   2536.751450 -13593.700461  27646.290792     -0.006776                    
P 25  -8771.855240  15161.258679 -19975.189660     78.591303                    
V 25 -25135.792314   2850.862833  13320.121945      0.033598                    
P 26 -18542.660460  -7478.117165  17018.345210    -63.758707                    
V 26 -11270.052773 -19746.593276 -19871.973334      0.145989                    
P 28 -10617.879670 -13159.752043  21112.039325    241.588222                    
V 28  25218.188891  -2881.880833  11023.272248      0.034106                    
P 29    882.529551  20781.872018 -16485.776332    417.462725                    
V 29 -13680.462544 -16042.427036 -20839.746333      0.037006                    
P 30  22314.618449   4414.233361 -14044.860022   -204.854056                    
V 30 -16221.819080   6202.439620 -24458.855903      0.069786                    
P 31  11434.812628  10025.848548 -21562.428284    306.803973                    
V 31 -11316.878470  25382.914375   6024.905048      0.015983                    
P 32  23563.520626  -7660.586946  -8680.092405   -543.702827                    
V 32  11572.687792   2646.468445  29124.764974     -0.029276                    
EOF
